[{"OBJECT_NAME":"STARLINK-31003","OBJECT_ID":"2023-191N","EPOCH":"2026-03-09T09:53:17.810880","MEAN_MOTION":15.2757637,"ECCENTRICITY":4.983e-5,"INCLINATION":43.0017,"RA_OF_ASC_NODE":104.5913,"ARG_OF_PERICENTER":273.2566,"MEAN_ANOMALY":86.8229,"EPHEMERIS_TYPE":0,"CLASSIFICATION_TYPE":"U","NORAD_CAT_ID":58520,"ELEMENT_SET_NO":999,"REV_AT_EPOCH":12543,"BSTAR":-3.9041589e-5,"MEAN_MOTION_DOT":-1.336e-5,"MEAN_MOTION_DDOT":0},{"OBJECT_NAME":"OBJECT B","OBJECT_ID":"2024-092B","EPOCH":"2026-03-09T22:35:16.756224","MEAN_MOTION":15.26654665,"ECCENTRICITY":0.00097063,"INCLINATION":97.6334,"RA_OF_ASC_NODE":195.5822,"ARG_OF_PERICENTER":166.5945,"MEAN_ANOMALY":193.5553,"EPHEMERIS_TYPE":0,"CLASSIFICATION_TYPE":"U","NORAD_CAT_ID":59774,"ELEMENT_SET_NO":999,"REV_AT_EPOCH":10038,"BSTAR":0.00052893964,"MEAN_MOTION_DOT":0.00013825,"MEAN_MOTION_DDOT":0}]
